{
"type": "FeatureCollection",
"name": "n02_23_station_toei",
"crs": { "type": "name", "properties": { "name": "urn:ogc:def:crs:OGC:1.3:CRS84" } },
"features": [
{ "type": "Feature", "properties": { "N02_001": "12", "N02_002": "3", "N02_003": "1号線浅草線", "N02_004": "東京都", "N02_005": "浅草", "N02_005c": "003537", "N02_005g": "003522" }, "geometry": { "type": "LineString", "coordinates": [ [ 139.79725, 35.70949 ], [ 139.79594, 35.70849 ] ] } },
{ "type": "Feature", "properties": { "N02_001": "12", "N02_002": "3", "N02_003": "1号線浅草線", "N02_004": "東京都", "N02_005": "蔵前", "N02_005c": "003583", "N02_005g": "003571" }, "geometry": { "type": "LineString", "coordinates": [ [ 139.7903, 35.70268 ], [ 139.7912, 35.70344 ], [ 139.79135, 35.70356 ], [ 139.79141, 35.70361 ] ] } },
{ "type": "Feature", "properties": { "N02_001": "12", "N02_002": "3", "N02_003": "1号線浅草線", "N02_004": "東京都", "N02_005": "本所吾妻橋", "N02_005c": "003538", "N02_005g": "003538" }, "geometry": { "type": "LineString", "coordinates": [ [ 139.80368, 35.70854 ], [ 139.8043, 35.70859 ], [ 139.80544, 35.70865 ] ] } },
{ "type": "Feature", "properties": { "N02_001": "12", "N02_002": "3", "N02_003": "1号線浅草線", "N02_004": "東京都", "N02_005": "浅草橋", "N02_005c": "003636", "N02_005g": "003636" }, "geometry": { "type": "LineString", "coordinates": [ [ 139.78598, 35.69687 ], [ 139.78693, 35.69834 ] ] } },
{ "type": "Feature", "properties": { "N02_001": "12", "N02_002": "3", "N02_003": "1号線浅草線", "N02_004": "東京都", "N02_005": "押上", "N02_005c": "003526", "N02_005g": "003526" }, "geometry": { "type": "LineString", "coordinates": [ [ 139.81158, 35.70972 ], [ 139.81324, 35.71072 ] ] } },
{ "type": "Feature", "properties": { "N02_001": "12", "N02_002": "3", "N02_003": "1号線浅草線", "N02_004": "東京都", "N02_005": "高輪台", "N02_005c": "004079", "N02_005g": "004079" }, "geometry": { "type": "LineString", "coordinates": [ [ 139.72975, 35.63122 ], [ 139.72987, 35.6313 ], [ 139.73017, 35.63152 ], [ 139.73098, 35.63214 ] ] } },
{ "type": "Feature", "properties": { "N02_001": "12", "N02_002": "3", "N02_003": "1号線浅草線", "N02_004": "東京都", "N02_005": "三田", "N02_005c": "003987", "N02_005g": "003986" }, "geometry": { "type": "LineString", "coordinates": [ [ 139.75015, 35.64815 ], [ 139.7496, 35.64799 ], [ 139.74914, 35.64776 ], [ 139.74902, 35.64771 ], [ 139.74881, 35.6476 ] ] } },
{ "type": "Feature", "properties": { "N02_001": "12", "N02_002": "3", "N02_003": "1号線浅草線", "N02_004": "東京都", "N02_005": "戸越", "N02_005c": "004161", "N02_005g": "004161" }, "geometry": { "type": "LineString", "coordinates": [ [ 139.71611, 35.61374 ], [ 139.71664, 35.61511 ] ] } },
{ "type": "Feature", "properties": { "N02_001": "12", "N02_002": "3", "N02_003": "1号線浅草線", "N02_004": "東京都", "N02_005": "日本橋", "N02_005c": "003762", "N02_005g": "003756" }, "geometry": { "type": "LineString", "coordinates": [ [ 139.77607, 35.68209 ], [ 139.77583, 35.68169 ], [ 139.77574, 35.68155 ], [ 139.77547, 35.68109 ] ] } },
{ "type": "Feature", "properties": { "N02_001": "12", "N02_002": "3", "N02_003": "1号線浅草線", "N02_004": "東京都", "N02_005": "新橋", "N02_005c": "003888", "N02_005g": "003872" }, "geometry": { "type": "LineString", "coordinates": [ [ 139.75852, 35.66432 ], [ 139.75888, 35.66476 ], [ 139.7592, 35.66514 ], [ 139.75947, 35.66544 ] ] } },
{ "type": "Feature", "properties": { "N02_001": "12", "N02_002": "3", "N02_003": "1号線浅草線", "N02_004": "東京都", "N02_005": "五反田", "N02_005c": "004107", "N02_005g": "004110" }, "geometry": { "type": "LineString", "coordinates": [ [ 139.72357, 35.6267 ], [ 139.7248, 35.62752 ] ] } },
{ "type": "Feature", "properties": { "N02_001": "12", "N02_002": "3", "N02_003": "1号線浅草線", "N02_004": "東京都", "N02_005": "宝町", "N02_005c": "003796", "N02_005g": "003796" }, "geometry": { "type": "LineString", "coordinates": [ [ 139.77242, 35.67617 ], [ 139.7722, 35.67586 ], [ 139.77215, 35.67578 ], [ 139.77188, 35.67535 ], [ 139.77181, 35.67517 ] ] } },
{ "type": "Feature", "properties": { "N02_001": "12", "N02_002": "3", "N02_003": "1号線浅草線", "N02_004": "東京都", "N02_005": "泉岳寺", "N02_005c": "004042", "N02_005g": "004042" }, "geometry": { "type": "LineString", "coordinates": [ [ 139.73938, 35.63746 ], [ 139.74008, 35.6388 ] ] } },
{ "type": "Feature", "properties": { "N02_001": "12", "N02_002": "3", "N02_003": "1号線浅草線", "N02_004": "東京都", "N02_005": "東銀座", "N02_005c": "003838", "N02_005g": "003838" }, "geometry": { "type": "LineString", "coordinates": [ [ 139.76645, 35.66901 ], [ 139.7668, 35.66931 ], [ 139.7671, 35.66959 ], [ 139.76732, 35.66979 ], [ 139.76744, 35.66991 ], [ 139.7678, 35.6703 ] ] } },
{ "type": "Feature", "properties": { "N02_001": "12", "N02_002": "3", "N02_003": "1号線浅草線", "N02_004": "東京都", "N02_005": "東日本橋", "N02_005c": "003676", "N02_005g": "003676" }, "geometry": { "type": "LineString", "coordinates": [ [ 139.78497, 35.69304 ], [ 139.7849, 35.69258 ], [ 139.78487, 35.69239 ], [ 139.78482, 35.69206 ], [ 139.78471, 35.6913 ], [ 139.78467, 35.69104 ], [ 139.78466, 35.69075 ], [ 139.78463, 35.69052 ] ] } },
{ "type": "Feature", "properties": { "N02_001": "12", "N02_002": "3", "N02_003": "1号線浅草線", "N02_004": "東京都", "N02_005": "大門", "N02_005c": "003940", "N02_005g": "003939" }, "geometry": { "type": "LineString", "coordinates": [ [ 139.75477, 35.65738 ], [ 139.75471, 35.65694 ], [ 139.75468, 35.65678 ], [ 139.75466, 35.65659 ], [ 139.75459, 35.65591 ] ] } },
{ "type": "Feature", "properties": { "N02_001": "12", "N02_002": "3", "N02_003": "1号線浅草線", "N02_004": "東京都", "N02_005": "人形町", "N02_005c": "003721", "N02_005g": "003721" }, "geometry": { "type": "LineString", "coordinates": [ [ 139.78263, 35.68662 ], [ 139.78178, 35.68611 ], [ 139.78171, 35.68608 ] ] } },
{ "type": "Feature", "properties": { "N02_001": "12", "N02_002": "3", "N02_003": "1号線浅草線", "N02_004": "東京都", "N02_005": "中延", "N02_005c": "004218", "N02_005g": "004215" }, "geometry": { "type": "LineString", "coordinates": [ [ 139.71344, 35.60442 ], [ 139.71374, 35.60593 ] ] } },
{ "type": "Feature", "properties": { "N02_001": "12", "N02_002": "3", "N02_003": "1号線浅草線", "N02_004": "東京都", "N02_005": "西馬込", "N02_005c": "004270", "N02_005g": "004270" }, "geometry": { "type": "LineString", "coordinates": [ [ 139.70585, 35.58668 ], [ 139.70679, 35.58793 ] ] } },
{ "type": "Feature", "properties": { "N02_001": "12", "N02_002": "3", "N02_003": "1号線浅草線", "N02_004": "東京都", "N02_005": "馬込", "N02_005c": "004248", "N02_005g": "004248" }, "geometry": { "type": "LineString", "coordinates": [ [ 139.71171, 35.59575 ], [ 139.71181, 35.59621 ], [ 139.71199, 35.59714 ] ] } },
{ "type": "Feature", "properties": { "N02_001": "12", "N02_002": "3", "N02_003": "6号線三田線", "N02_004": "東京都", "N02_005": "水道橋", "N02_005c": "003580", "N02_005g": "003580" }, "geometry": { "type": "LineString", "coordinates": [ [ 139.75541, 35.70269 ], [ 139.7553, 35.70308 ], [ 139.75507, 35.70381 ], [ 139.7549, 35.70435 ], [ 139.75483, 35.70459 ] ] } },
{ "type": "Feature", "properties": { "N02_001": "12", "N02_002": "3", "N02_003": "6号線三田線", "N02_004": "東京都", "N02_005": "白山", "N02_005c": "003461", "N02_005g": "003461" }, "geometry": { "type": "LineString", "coordinates": [ [ 139.75249, 35.72204 ], [ 139.75247, 35.72198 ], [ 139.75193, 35.72063 ] ] } },
{ "type": "Feature", "properties": { "N02_001": "12", "N02_002": "3", "N02_003": "6号線三田線", "N02_004": "東京都", "N02_005": "千石", "N02_005c": "003415", "N02_005g": "003415" }, "geometry": { "type": "LineString", "coordinates": [ [ 139.74409, 35.72845 ], [ 139.7454, 35.72748 ] ] } },
{ "type": "Feature", "properties": { "N02_001": "12", "N02_002": "3", "N02_003": "6号線三田線", "N02_004": "東京都", "N02_005": "春日", "N02_005c": "003529", "N02_005g": "003529" }, "geometry": { "type": "LineString", "coordinates": [ [ 139.75347, 35.70913 ], [ 139.75329, 35.70977 ], [ 139.75323, 35.70997 ], [ 139.75313, 35.71035 ], [ 139.75302, 35.71077 ] ] } },
{ "type": "Feature", "properties": { "N02_001": "12", "N02_002": "3", "N02_003": "6号線三田線", "N02_004": "東京都", "N02_005": "巣鴨", "N02_005c": "003354", "N02_005g": "003354" }, "geometry": { "type": "LineString", "coordinates": [ [ 139.73742, 35.73426 ], [ 139.73865, 35.7333 ] ] } },
{ "type": "Feature", "properties": { "N02_001": "12", "N02_002": "3", "N02_003": "6号線三田線", "N02_004": "東京都", "N02_005": "新板橋", "N02_005c": "003268", "N02_005g": "003268" }, "geometry": { "type": "LineString", "coordinates": [ [ 139.71848, 35.74893 ], [ 139.72025, 35.74875 ] ] } },
{ "type": "Feature", "properties": { "N02_001": "12", "N02_002": "3", "N02_003": "6号線三田線", "N02_004": "東京都", "N02_005": "西高島平", "N02_005c": "003104", "N02_005g": "003104" }, "geometry": { "type": "LineString", "coordinates": [ [ 139.64682, 35.79169 ], [ 139.64455, 35.7921 ] ] } },
{ "type": "Feature", "properties": { "N02_001": "12", "N02_002": "3", "N02_003": "6号線三田線", "N02_004": "東京都", "N02_005": "板橋区役所前", "N02_005c": "003245", "N02_005g": "003245" }, "geometry": { "type": "LineString", "coordinates": [ [ 139.70946, 35.75179 ], [ 139.71065, 35.75082 ] ] } },
{ "type": "Feature", "properties": { "N02_001": "12", "N02_002": "3", "N02_003": "6号線三田線", "N02_004": "東京都", "N02_005": "新高島平", "N02_005c": "003112", "N02_005g": "003112" }, "geometry": { "type": "LineString", "coordinates": [ [ 139.65529, 35.79004 ], [ 139.65337, 35.7904 ] ] } },
{ "type": "Feature", "properties": { "N02_001": "12", "N02_002": "3", "N02_003": "6号線三田線", "N02_004": "東京都", "N02_005": "本蓮沼", "N02_005c": "003193", "N02_005g": "003193" }, "geometry": { "type": "LineString", "coordinates": [ [ 139.70253, 35.76837 ], [ 139.70169, 35.7696 ] ] } },
{ "type": "Feature", "properties": { "N02_001": "12", "N02_002": "3", "N02_003": "6号線三田線", "N02_004": "東京都", "N02_005": "西巣鴨", "N02_005c": "003293", "N02_005g": "003293" }, "geometry": { "type": "LineString", "coordinates": [ [ 139.72814, 35.74404 ], [ 139.72931, 35.74279 ] ] } },
{ "type": "Feature", "properties": { "N02_001": "12", "N02_002": "3", "N02_003": "6号線三田線", "N02_004": "東京都", "N02_005": "高島平", "N02_005c": "003117", "N02_005g": "003117" }, "geometry": { "type": "LineString", "coordinates": [ [ 139.66224, 35.78875 ], [ 139.66035, 35.78912 ] ] } },
{ "type": "Feature", "properties": { "N02_001": "12", "N02_002": "3", "N02_003": "6号線三田線", "N02_004": "東京都", "N02_005": "志村坂上", "N02_005c": "003165", "N02_005g": "003165" }, "geometry": { "type": "LineString", "coordinates": [ [ 139.6953, 35.77578 ], [ 139.69416, 35.7769 ] ] } },
{ "type": "Feature", "properties": { "N02_001": "12", "N02_002": "3", "N02_003": "6号線三田線", "N02_004": "東京都", "N02_005": "板橋本町", "N02_005c": "003216", "N02_005g": "003216" }, "geometry": { "type": "LineString", "coordinates": [ [ 139.70575, 35.76072 ], [ 139.70546, 35.76148 ] ] } },
{ "type": "Feature", "properties": { "N02_001": "12", "N02_002": "3", "N02_003": "6号線三田線", "N02_004": "東京都", "N02_005": "西台", "N02_005c": "003128", "N02_005g": "003128" }, "geometry": { "type": "LineString", "coordinates": [ [ 139.67367, 35.78699 ], [ 139.67169, 35.78717 ] ] } },
{ "type": "Feature", "properties": { "N02_001": "12", "N02_002": "3", "N02_003": "6号線三田線", "N02_004": "東京都", "N02_005": "蓮根", "N02_005c": "003140", "N02_005g": "003140" }, "geometry": { "type": "LineString", "coordinates": [ [ 139.67898, 35.78342 ], [ 139.67914, 35.78469 ] ] } },
{ "type": "Feature", "properties": { "N02_001": "12", "N02_002": "3", "N02_003": "6号線三田線", "N02_004": "東京都", "N02_005": "志村三丁目", "N02_005c": "003158", "N02_005g": "003158" }, "geometry": { "type": "LineString", "coordinates": [ [ 139.68673, 35.77767 ], [ 139.68499, 35.77726 ] ] } },
{ "type": "Feature", "properties": { "N02_001": "12", "N02_002": "3", "N02_003": "6号線三田線", "N02_004": "東京都", "N02_005": "目黒", "N02_005c": "004072", "N02_005g": "004072" }, "geometry": { "type": "LineString", "coordinates": [ [ 139.71542, 35.6332 ], [ 139.7159, 35.63177 ] ] } },
{ "type": "Feature", "properties": { "N02_001": "12", "N02_002": "3", "N02_003": "6号線三田線", "N02_004": "東京都", "N02_005": "日比谷", "N02_005c": "003793", "N02_005g": "003802" }, "geometry": { "type": "LineString", "coordinates": [ [ 139.75989, 35.67589 ], [ 139.7604, 35.67735 ] ] } },
{ "type": "Feature", "properties": { "N02_001": "12", "N02_002": "3", "N02_003": "6号線三田線", "N02_004": "東京都", "N02_005": "内幸町", "N02_005c": "003842", "N02_005g": "003842" }, "geometry": { "type": "LineString", "coordinates": [ [ 139.75567, 35.66983 ], [ 139.75554, 35.66958 ], [ 139.7555, 35.6695 ], [ 139.75533, 35.66918 ], [ 139.75501, 35.66852 ] ] } },
{ "type": "Feature", "properties": { "N02_001": "12", "N02_002": "3", "N02_003": "6号線三田線", "N02_004": "東京都", "N02_005": "白金高輪", "N02_005c": "004025", "N02_005g": "004025" }, "geometry": { "type": "LineString", "coordinates": [ [ 139.73469, 35.64385 ], [ 139.73388, 35.64244 ] ] } },
{ "type": "Feature", "properties": { "N02_001": "12", "N02_002": "3", "N02_003": "6号線三田線", "N02_004": "東京都", "N02_005": "白金台", "N02_005c": "004044", "N02_005g": "004044" }, "geometry": { "type": "LineString", "coordinates": [ [ 139.72671, 35.63814 ], [ 139.72501, 35.6374 ] ] } },
{ "type": "Feature", "properties": { "N02_001": "12", "N02_002": "3", "N02_003": "6号線三田線", "N02_004": "東京都", "N02_005": "神保町", "N02_005c": "003660", "N02_005g": "003651" }, "geometry": { "type": "LineString", "coordinates": [ [ 139.758458536023113, 35.69427005843545 ], [ 139.758161103397697, 35.695781016174067 ] ] } },
{ "type": "Feature", "properties": { "N02_001": "12", "N02_002": "3", "N02_003": "6号線三田線", "N02_004": "東京都", "N02_005": "大手町", "N02_005c": "003742", "N02_005g": "003719" }, "geometry": { "type": "LineString", "coordinates": [ [ 139.76236, 35.68324 ], [ 139.76286, 35.6849 ] ] } },
{ "type": "Feature", "properties": { "N02_001": "12", "N02_002": "3", "N02_003": "6号線三田線", "N02_004": "東京都", "N02_005": "御成門", "N02_005c": "003911", "N02_005g": "003911" }, "geometry": { "type": "LineString", "coordinates": [ [ 139.75183, 35.66169 ], [ 139.75149, 35.66096 ], [ 139.75114, 35.66028 ] ] } },
{ "type": "Feature", "properties": { "N02_001": "12", "N02_002": "3", "N02_003": "6号線三田線", "N02_004": "東京都", "N02_005": "芝公園", "N02_005c": "003962", "N02_005g": "003962" }, "geometry": { "type": "LineString", "coordinates": [ [ 139.74983, 35.65416 ], [ 139.74982, 35.65411 ], [ 139.7498, 35.65397 ], [ 139.74961, 35.65275 ] ] } },
{ "type": "Feature", "properties": { "N02_001": "12", "N02_002": "3", "N02_003": "6号線三田線", "N02_004": "東京都", "N02_005": "三田", "N02_005c": "003986", "N02_005g": "003986" }, "geometry": { "type": "LineString", "coordinates": [ [ 139.74897, 35.64869 ], [ 139.74892, 35.64837 ], [ 139.74881, 35.6476 ] ] } },
{ "type": "Feature", "properties": { "N02_001": "12", "N02_002": "3", "N02_003": "10号線新宿線", "N02_004": "東京都", "N02_005": "本八幡", "N02_005c": "003449", "N02_005g": "003449" }, "geometry": { "type": "LineString", "coordinates": [ [ 139.92749, 35.72407 ], [ 139.92627, 35.72263 ] ] } },
{ "type": "Feature", "properties": { "N02_001": "12", "N02_002": "3", "N02_003": "10号線新宿線", "N02_004": "東京都", "N02_005": "神保町", "N02_005c": "003651", "N02_005g": "003651" }, "geometry": { "type": "LineString", "coordinates": [ [ 139.756854085295799, 35.69594942252678 ], [ 139.758010503344735, 35.695987493902862 ], [ 139.759120000000166, 35.69606 ] ] } },
{ "type": "Feature", "properties": { "N02_001": "12", "N02_002": "3", "N02_003": "10号線新宿線", "N02_004": "東京都", "N02_005": "篠崎", "N02_005c": "003565", "N02_005g": "003565" }, "geometry": { "type": "LineString", "coordinates": [ [ 139.90459, 35.70681 ], [ 139.90318, 35.70543 ] ] } },
{ "type": "Feature", "properties": { "N02_001": "12", "N02_002": "3", "N02_003": "10号線新宿線", "N02_004": "東京都", "N02_005": "九段下", "N02_005c": "003657", "N02_005g": "003657" }, "geometry": { "type": "LineString", "coordinates": [ [ 139.75215, 35.69569 ], [ 139.7514, 35.69554 ], [ 139.75008, 35.69533 ] ] } },
{ "type": "Feature", "properties": { "N02_001": "12", "N02_002": "3", "N02_003": "10号線新宿線", "N02_004": "東京都", "N02_005": "西大島", "N02_005c": "003702", "N02_005g": "003702" }, "geometry": { "type": "LineString", "coordinates": [ [ 139.82728, 35.68933 ], [ 139.82625, 35.68936 ], [ 139.82536, 35.68934 ] ] } },
{ "type": "Feature", "properties": { "N02_001": "12", "N02_002": "3", "N02_003": "10号線新宿線", "N02_004": "東京都", "N02_005": "曙橋", "N02_005c": "003673", "N02_005g": "003673" }, "geometry": { "type": "LineString", "coordinates": [ [ 139.72357, 35.6923 ], [ 139.72159, 35.69236 ] ] } },
{ "type": "Feature", "properties": { "N02_001": "12", "N02_002": "3", "N02_003": "10号線新宿線", "N02_004": "東京都", "N02_005": "東大島", "N02_005c": "003695", "N02_005g": "003695" }, "geometry": { "type": "LineString", "coordinates": [ [ 139.84892, 35.68926 ], [ 139.84781, 35.68974 ], [ 139.84756, 35.68985 ], [ 139.8465, 35.69015 ], [ 139.84561, 35.69032 ] ] } },
{ "type": "Feature", "properties": { "N02_001": "12", "N02_002": "3", "N02_003": "10号線新宿線", "N02_004": "東京都", "N02_005": "岩本町", "N02_005c": "003655", "N02_005g": "003655" }, "geometry": { "type": "LineString", "coordinates": [ [ 139.77626, 35.69553 ], [ 139.77602, 35.69553 ], [ 139.77552, 35.69556 ], [ 139.77513, 35.69558 ], [ 139.77469, 35.69559 ], [ 139.77411, 35.69562 ] ] } },
{ "type": "Feature", "properties": { "N02_001": "12", "N02_002": "3", "N02_003": "10号線新宿線", "N02_004": "東京都", "N02_005": "菊川", "N02_005c": "003709", "N02_005g": "003709" }, "geometry": { "type": "LineString", "coordinates": [ [ 139.80708, 35.68848 ], [ 139.80606, 35.6884 ], [ 139.80517, 35.68834 ] ] } },
{ "type": "Feature", "properties": { "N02_001": "12", "N02_002": "3", "N02_003": "10号線新宿線", "N02_004": "東京都", "N02_005": "大島", "N02_005c": "003698", "N02_005g": "003698" }, "geometry": { "type": "LineString", "coordinates": [ [ 139.83522, 35.68985 ], [ 139.83515, 35.68984 ], [ 139.83425, 35.68975 ], [ 139.8338, 35.68971 ], [ 139.8335, 35.68968 ] ] } },
{ "type": "Feature", "properties": { "N02_001": "12", "N02_002": "3", "N02_003": "10号線新宿線", "N02_004": "東京都", "N02_005": "船堀", "N02_005c": "003745", "N02_005g": "003745" }, "geometry": { "type": "LineString", "coordinates": [ [ 139.86487, 35.68382 ], [ 139.86284, 35.68375 ] ] } },
{ "type": "Feature", "properties": { "N02_001": "12", "N02_002": "3", "N02_003": "10号線新宿線", "N02_004": "東京都", "N02_005": "小川町", "N02_005c": "003659", "N02_005g": "003659" }, "geometry": { "type": "LineString", "coordinates": [ [ 139.76788, 35.69561 ], [ 139.76746, 35.69544 ], [ 139.76639, 35.69504 ], [ 139.76614, 35.69493 ], [ 139.76584, 35.69482 ] ] } },
{ "type": "Feature", "properties": { "N02_001": "12", "N02_002": "3", "N02_003": "10号線新宿線", "N02_004": "東京都", "N02_005": "市ヶ谷", "N02_005c": "003680", "N02_005g": "003671" }, "geometry": { "type": "LineString", "coordinates": [ [ 139.73828, 35.69171 ], [ 139.73649, 35.6912 ] ] } },
{ "type": "Feature", "properties": { "N02_001": "12", "N02_002": "3", "N02_003": "10号線新宿線", "N02_004": "東京都", "N02_005": "瑞江", "N02_005c": "003667", "N02_005g": "003667" }, "geometry": { "type": "LineString", "coordinates": [ [ 139.89831, 35.6941 ], [ 139.89731, 35.69268 ] ] } },
{ "type": "Feature", "properties": { "N02_001": "12", "N02_002": "3", "N02_003": "10号線新宿線", "N02_004": "東京都", "N02_005": "馬喰横山", "N02_005c": "003675", "N02_005g": "003675" }, "geometry": { "type": "LineString", "coordinates": [ [ 139.78369, 35.69134 ], [ 139.78334, 35.69163 ], [ 139.783, 35.69194 ], [ 139.78261, 35.69228 ], [ 139.78227, 35.69258 ], [ 139.78216, 35.69268 ] ] } },
{ "type": "Feature", "properties": { "N02_001": "12", "N02_002": "3", "N02_003": "10号線新宿線", "N02_004": "東京都", "N02_005": "浜町", "N02_005c": "003706", "N02_005g": "003706" }, "geometry": { "type": "LineString", "coordinates": [ [ 139.78898, 35.68839 ], [ 139.78727, 35.68879 ] ] } },
{ "type": "Feature", "properties": { "N02_001": "12", "N02_002": "3", "N02_003": "10号線新宿線", "N02_004": "東京都", "N02_005": "一之江", "N02_005c": "003724", "N02_005g": "003724" }, "geometry": { "type": "LineString", "coordinates": [ [ 139.8839, 35.68608 ], [ 139.88188, 35.6858 ] ] } },
{ "type": "Feature", "properties": { "N02_001": "12", "N02_002": "3", "N02_003": "10号線新宿線", "N02_004": "東京都", "N02_005": "森下", "N02_005c": "003711", "N02_005g": "003711" }, "geometry": { "type": "LineString", "coordinates": [ [ 139.79919, 35.68807 ], [ 139.79818, 35.68805 ], [ 139.79734, 35.68804 ], [ 139.7972, 35.68804 ] ] } },
{ "type": "Feature", "properties": { "N02_001": "12", "N02_002": "3", "N02_003": "10号線新宿線", "N02_004": "東京都", "N02_005": "住吉", "N02_005c": "003704", "N02_005g": "003704" }, "geometry": { "type": "LineString", "coordinates": [ [ 139.81666, 35.689 ], [ 139.81637, 35.68898 ], [ 139.81564, 35.68895 ], [ 139.81483, 35.6889 ] ] } },
{ "type": "Feature", "properties": { "N02_001": "12", "N02_002": "3", "N02_003": "10号線新宿線", "N02_004": "東京都", "N02_005": "新宿", "N02_005c": "003708", "N02_005g": "003700" }, "geometry": { "type": "LineString", "coordinates": [ [ 139.69932, 35.68871 ], [ 139.69791, 35.68815 ] ] } },
{ "type": "Feature", "properties": { "N02_001": "12", "N02_002": "3", "N02_003": "10号線新宿線", "N02_004": "東京都", "N02_005": "新宿三丁目", "N02_005c": "003687", "N02_005g": "003689" }, "geometry": { "type": "LineString", "coordinates": [ [ 139.70749, 35.69114 ], [ 139.70558, 35.69054 ] ] } },
{ "type": "Feature", "properties": { "N02_001": "12", "N02_002": "3", "N02_003": "12号線大江戸線", "N02_004": "東京都", "N02_005": "本郷三丁目", "N02_005c": "003546", "N02_005g": "003546" }, "geometry": { "type": "LineString", "coordinates": [ [ 139.7598, 35.70754 ], [ 139.76059, 35.70758 ], [ 139.76106, 35.70758 ], [ 139.76143, 35.70758 ] ] } },
{ "type": "Feature", "properties": { "N02_001": "12", "N02_002": "3", "N02_003": "12号線大江戸線", "N02_004": "東京都", "N02_005": "春日", "N02_005c": "003539", "N02_005g": "003529" }, "geometry": { "type": "LineString", "coordinates": [ [ 139.75136, 35.7085 ], [ 139.75179, 35.7085 ], [ 139.75298, 35.70849 ] ] } },
{ "type": "Feature", "properties": { "N02_001": "12", "N02_002": "3", "N02_003": "12号線大江戸線", "N02_004": "東京都", "N02_005": "両国", "N02_005c": "003646", "N02_005g": "003646" }, "geometry": { "type": "LineString", "coordinates": [ [ 139.79737, 35.69751 ], [ 139.79742, 35.69692 ], [ 139.79749, 35.69603 ] ] } },
{ "type": "Feature", "properties": { "N02_001": "12", "N02_002": "3", "N02_003": "12号線大江戸線", "N02_004": "東京都", "N02_005": "上野御徒町", "N02_005c": "003543", "N02_005g": "003543" }, "geometry": { "type": "LineString", "coordinates": [ [ 139.77226, 35.70804 ], [ 139.77233, 35.70803 ], [ 139.77246, 35.70802 ], [ 139.77365, 35.7079 ], [ 139.77387, 35.70788 ] ] } },
{ "type": "Feature", "properties": { "N02_001": "12", "N02_002": "3", "N02_003": "12号線大江戸線", "N02_004": "東京都", "N02_005": "蔵前", "N02_005c": "003571", "N02_005g": "003571" }, "geometry": { "type": "LineString", "coordinates": [ [ 139.793, 35.70522 ], [ 139.79267, 35.70535 ], [ 139.79256, 35.70539 ], [ 139.79223, 35.70552 ], [ 139.7918, 35.70569 ], [ 139.7915, 35.70578 ] ] } },
{ "type": "Feature", "properties": { "N02_001": "12", "N02_002": "3", "N02_003": "12号線大江戸線", "N02_004": "東京都", "N02_005": "新御徒町", "N02_005c": "003556", "N02_005g": "003556" }, "geometry": { "type": "LineString", "coordinates": [ [ 139.78272, 35.70692 ], [ 139.78234, 35.70696 ], [ 139.78191, 35.707 ], [ 139.78128, 35.70707 ], [ 139.7811, 35.70709 ] ] } },
{ "type": "Feature", "properties": { "N02_001": "12", "N02_002": "3", "N02_003": "12号線大江戸線", "N02_004": "東京都", "N02_005": "飯田橋", "N02_005c": "003585", "N02_005g": "003595" }, "geometry": { "type": "LineString", "coordinates": [ [ 139.74646, 35.70335 ], [ 139.74571, 35.70309 ], [ 139.74503, 35.70285 ] ] } },
{ "type": "Feature", "properties": { "N02_001": "12", "N02_002": "3", "N02_003": "12号線大江戸線", "N02_004": "東京都", "N02_005": "東新宿", "N02_005c": "003630", "N02_005g": "003612" }, "geometry": { "type": "LineString", "coordinates": [ [ 139.70852, 35.69779 ], [ 139.70686, 35.698 ] ] } },
{ "type": "Feature", "properties": { "N02_001": "12", "N02_002": "3", "N02_003": "12号線大江戸線", "N02_004": "東京都", "N02_005": "牛込柳町", "N02_005c": "003618", "N02_005g": "003618" }, "geometry": { "type": "LineString", "coordinates": [ [ 139.72599, 35.6994 ], [ 139.72439, 35.69952 ] ] } },
{ "type": "Feature", "properties": { "N02_001": "12", "N02_002": "3", "N02_003": "12号線大江戸線", "N02_004": "東京都", "N02_005": "新江古田", "N02_005c": "003367", "N02_005g": "003367" }, "geometry": { "type": "LineString", "coordinates": [ [ 139.67133, 35.73221 ], [ 139.67057, 35.73249 ], [ 139.6698, 35.73277 ] ] } },
{ "type": "Feature", "properties": { "N02_001": "12", "N02_002": "3", "N02_003": "12号線大江戸線", "N02_004": "東京都", "N02_005": "練馬", "N02_005c": "003338", "N02_005g": "003328" }, "geometry": { "type": "LineString", "coordinates": [ [ 139.65551, 35.73748 ], [ 139.65363, 35.73715 ] ] } },
{ "type": "Feature", "properties": { "N02_001": "12", "N02_002": "3", "N02_003": "12号線大江戸線", "N02_004": "東京都", "N02_005": "落合南長崎", "N02_005c": "003448", "N02_005g": "003448" }, "geometry": { "type": "LineString", "coordinates": [ [ 139.68387, 35.72282 ], [ 139.68351, 35.72329 ], [ 139.6833, 35.72368 ], [ 139.68315, 35.72395 ] ] } },
{ "type": "Feature", "properties": { "N02_001": "12", "N02_002": "3", "N02_003": "12号線大江戸線", "N02_004": "東京都", "N02_005": "牛込神楽坂", "N02_005c": "003602", "N02_005g": "003602" }, "geometry": { "type": "LineString", "coordinates": [ [ 139.73677, 35.70121 ], [ 139.73531, 35.70062 ] ] } },
{ "type": "Feature", "properties": { "N02_001": "12", "N02_002": "3", "N02_003": "12号線大江戸線", "N02_004": "東京都", "N02_005": "光が丘", "N02_005c": "003225", "N02_005g": "003225" }, "geometry": { "type": "LineString", "coordinates": [ [ 139.62997, 35.75848 ], [ 139.62851, 35.75846 ] ] } },
{ "type": "Feature", "properties": { "N02_001": "12", "N02_002": "3", "N02_003": "12号線大江戸線", "N02_004": "東京都", "N02_005": "豊島園", "N02_005c": "003309", "N02_005g": "003305" }, "geometry": { "type": "LineString", "coordinates": [ [ 139.64918, 35.74074 ], [ 139.64923, 35.74248 ] ] } },
{ "type": "Feature", "properties": { "N02_001": "12", "N02_002": "3", "N02_003": "12号線大江戸線", "N02_004": "東京都", "N02_005": "東中野", "N02_005c": "003549", "N02_005g": "003549" }, "geometry": { "type": "LineString", "coordinates": [ [ 139.68296, 35.70672 ], [ 139.68354, 35.70802 ] ] } },
{ "type": "Feature", "properties": { "N02_001": "12", "N02_002": "3", "N02_003": "12号線大江戸線", "N02_004": "東京都", "N02_005": "練馬春日町", "N02_005c": "003243", "N02_005g": "003243" }, "geometry": { "type": "LineString", "coordinates": [ [ 139.64161, 35.75108 ], [ 139.63991, 35.75164 ] ] } },
{ "type": "Feature", "properties": { "N02_001": "12", "N02_002": "3", "N02_003": "12号線大江戸線", "N02_004": "東京都", "N02_005": "若松河田", "N02_005c": "003623", "N02_005g": "003623" }, "geometry": { "type": "LineString", "coordinates": [ [ 139.71894, 35.6994 ], [ 139.71743, 35.69893 ] ] } },
{ "type": "Feature", "properties": { "N02_001": "12", "N02_002": "3", "N02_003": "12号線大江戸線", "N02_004": "東京都", "N02_005": "中井", "N02_005c": "003503", "N02_005g": "003495" }, "geometry": { "type": "LineString", "coordinates": [ [ 139.686, 35.71321 ], [ 139.68662, 35.71452 ] ] } },
{ "type": "Feature", "properties": { "N02_001": "12", "N02_002": "3", "N02_003": "12号線大江戸線", "N02_004": "東京都", "N02_005": "中野坂上", "N02_005c": "003631", "N02_005g": "003643" }, "geometry": { "type": "LineString", "coordinates": [ [ 139.68293, 35.69717 ], [ 139.68299, 35.69858 ] ] } },
{ "type": "Feature", "properties": { "N02_001": "12", "N02_002": "3", "N02_003": "12号線大江戸線", "N02_004": "東京都", "N02_005": "大門", "N02_005c": "003939", "N02_005g": "003939" }, "geometry": { "type": "LineString", "coordinates": [ [ 139.75498, 35.65674 ], [ 139.75531, 35.65671 ], [ 139.75617, 35.65664 ], [ 139.75643, 35.65662 ] ] } },
{ "type": "Feature", "properties": { "N02_001": "12", "N02_002": "3", "N02_003": "12号線大江戸線", "N02_004": "東京都", "N02_005": "六本木", "N02_005c": "003892", "N02_005g": "003892" }, "geometry": { "type": "LineString", "coordinates": [ [ 139.73076, 35.66448 ], [ 139.73179, 35.66365 ] ] } },
{ "type": "Feature", "properties": { "N02_001": "12", "N02_002": "3", "N02_003": "12号線大江戸線", "N02_004": "東京都", "N02_005": "汐留", "N02_005c": "003887", "N02_005g": "003887" }, "geometry": { "type": "LineString", "coordinates": [ [ 139.76245, 35.66625 ], [ 139.76191, 35.6657 ], [ 139.76088, 35.66443 ], [ 139.76009, 35.66358 ] ] } },
{ "type": "Feature", "properties": { "N02_001": "12", "N02_002": "3", "N02_003": "12号線大江戸線", "N02_004": "東京都", "N02_005": "門前仲町", "N02_005c": "003818", "N02_005g": "003818" }, "geometry": { "type": "LineString", "coordinates": [ [ 139.79542, 35.67324 ], [ 139.79531, 35.67306 ], [ 139.79511, 35.67273 ], [ 139.7949, 35.67243 ], [ 139.79479, 35.6723 ] ] } },
{ "type": "Feature", "properties": { "N02_001": "12", "N02_002": "3", "N02_003": "12号線大江戸線", "N02_004": "東京都", "N02_005": "森下", "N02_005c": "003712", "N02_005g": "003711" }, "geometry": { "type": "LineString", "coordinates": [ [ 139.79826, 35.68726 ], [ 139.79825, 35.68737 ], [ 139.79818, 35.68805 ], [ 139.79816, 35.68848 ], [ 139.79814, 35.68875 ] ] } },
{ "type": "Feature", "properties": { "N02_001": "12", "N02_002": "3", "N02_003": "12号線大江戸線", "N02_004": "東京都", "N02_005": "築地市場", "N02_005c": "003886", "N02_005g": "003886" }, "geometry": { "type": "LineString", "coordinates": [ [ 139.76718, 35.66462 ], [ 139.76632, 35.6653 ] ] } },
{ "type": "Feature", "properties": { "N02_001": "12", "N02_002": "3", "N02_003": "12号線大江戸線", "N02_004": "東京都", "N02_005": "青山一丁目", "N02_005c": "003813", "N02_005g": "003812" }, "geometry": { "type": "LineString", "coordinates": [ [ 139.72434, 35.67216 ], [ 139.72406, 35.67276 ], [ 139.72362, 35.67368 ] ] } },
{ "type": "Feature", "properties": { "N02_001": "12", "N02_002": "3", "N02_003": "12号線大江戸線", "N02_004": "東京都", "N02_005": "麻布十番", "N02_005c": "003941", "N02_005g": "003941" }, "geometry": { "type": "LineString", "coordinates": [ [ 139.73539, 35.65665 ], [ 139.73682, 35.65633 ] ] } },
{ "type": "Feature", "properties": { "N02_001": "12", "N02_002": "3", "N02_003": "12号線大江戸線", "N02_004": "東京都", "N02_005": "勝どき", "N02_005c": "003927", "N02_005g": "003927" }, "geometry": { "type": "LineString", "coordinates": [ [ 139.77778, 35.65938 ], [ 139.77768, 35.65931 ], [ 139.77748, 35.65917 ], [ 139.77671, 35.65865 ], [ 139.77662, 35.65858 ], [ 139.77653, 35.65851 ] ] } },
{ "type": "Feature", "properties": { "N02_001": "12", "N02_002": "3", "N02_003": "12号線大江戸線", "N02_004": "東京都", "N02_005": "清澄白河", "N02_005c": "003754", "N02_005g": "003754" }, "geometry": { "type": "LineString", "coordinates": [ [ 139.79875, 35.68222 ], [ 139.79872, 35.68252 ], [ 139.79862, 35.68322 ], [ 139.7986, 35.68346 ], [ 139.79858, 35.68367 ] ] } },
{ "type": "Feature", "properties": { "N02_001": "12", "N02_002": "3", "N02_003": "12号線大江戸線", "N02_004": "東京都", "N02_005": "月島", "N02_005c": "003893", "N02_005g": "003889" }, "geometry": { "type": "LineString", "coordinates": [ [ 139.78479, 35.66441 ], [ 139.78457, 35.66425 ], [ 139.78439, 35.66412 ], [ 139.78356, 35.66351 ], [ 139.78342, 35.66341 ], [ 139.78338, 35.66338 ] ] } },
{ "type": "Feature", "properties": { "N02_001": "12", "N02_002": "3", "N02_003": "12号線大江戸線", "N02_004": "東京都", "N02_005": "赤羽橋", "N02_005c": "003954", "N02_005g": "003954" }, "geometry": { "type": "LineString", "coordinates": [ [ 139.74342, 35.65505 ], [ 139.74497, 35.65489 ] ] } },
{ "type": "Feature", "properties": { "N02_001": "12", "N02_002": "3", "N02_003": "12号線大江戸線", "N02_004": "東京都", "N02_005": "新宿", "N02_005c": "003715", "N02_005g": "003700" }, "geometry": { "type": "LineString", "coordinates": [ [ 139.69952, 35.68716 ], [ 139.69918, 35.68809 ] ] } },
{ "type": "Feature", "properties": { "N02_001": "12", "N02_002": "3", "N02_003": "12号線大江戸線", "N02_004": "東京都", "N02_005": "西新宿五丁目", "N02_005c": "003696", "N02_005g": "003696" }, "geometry": { "type": "LineString", "coordinates": [ [ 139.68535, 35.6902 ], [ 139.68398, 35.6896 ] ] } },
{ "type": "Feature", "properties": { "N02_001": "12", "N02_002": "3", "N02_003": "12号線大江戸線", "N02_004": "東京都", "N02_005": "都庁前", "N02_005c": "003690", "N02_005g": "003690" }, "geometry": { "type": "LineString", "coordinates": [ [ 139.69345, 35.69073 ], [ 139.6918, 35.69045 ] ] } },
{ "type": "Feature", "properties": { "N02_001": "12", "N02_002": "3", "N02_003": "12号線大江戸線", "N02_004": "東京都", "N02_005": "新宿西口", "N02_005c": "003669", "N02_005g": "003669" }, "geometry": { "type": "LineString", "coordinates": [ [ 139.69901, 35.69382 ], [ 139.69931, 35.6925 ] ] } },
{ "type": "Feature", "properties": { "N02_001": "12", "N02_002": "3", "N02_003": "12号線大江戸線", "N02_004": "東京都", "N02_005": "国立競技場", "N02_005c": "003775", "N02_005g": "003775" }, "geometry": { "type": "LineString", "coordinates": [ [ 139.71583, 35.67963 ], [ 139.71441, 35.67997 ], [ 139.71392, 35.68008 ] ] } },
{ "type": "Feature", "properties": { "N02_001": "12", "N02_002": "3", "N02_003": "12号線大江戸線", "N02_004": "東京都", "N02_005": "代々木", "N02_005c": "003746", "N02_005g": "003743" }, "geometry": { "type": "LineString", "coordinates": [ [ 139.70174, 35.683 ], [ 139.70131, 35.68456 ] ] } },
{ "type": "Feature", "properties": { "N02_001": "21", "N02_002": "3", "N02_003": "荒川線", "N02_004": "東京都", "N02_005": "荒川車庫前", "N02_005c": "003252", "N02_005g": "003252" }, "geometry": { "type": "LineString", "coordinates": [ [ 139.75256, 35.75087 ], [ 139.75305, 35.75085 ] ] } },
{ "type": "Feature", "properties": { "N02_001": "21", "N02_002": "3", "N02_003": "荒川線", "N02_004": "東京都", "N02_005": "王子駅前", "N02_005c": "003239", "N02_005g": "003239" }, "geometry": { "type": "LineString", "coordinates": [ [ 139.73846, 35.75256 ], [ 139.73824, 35.75274 ], [ 139.73798, 35.75289 ] ] } },
{ "type": "Feature", "properties": { "N02_001": "21", "N02_002": "3", "N02_003": "荒川線", "N02_004": "東京都", "N02_005": "梶原", "N02_005c": "003246", "N02_005g": "003246" }, "geometry": { "type": "LineString", "coordinates": [ [ 139.74758, 35.75107 ], [ 139.74702, 35.75107 ] ] } },
{ "type": "Feature", "properties": { "N02_001": "21", "N02_002": "3", "N02_003": "荒川線", "N02_004": "東京都", "N02_005": "荒川遊園地前", "N02_005c": "003254", "N02_005g": "003254" }, "geometry": { "type": "LineString", "coordinates": [ [ 139.75775, 35.75064 ], [ 139.75741, 35.75065 ], [ 139.7572, 35.75066 ] ] } },
{ "type": "Feature", "properties": { "N02_001": "21", "N02_002": "3", "N02_003": "荒川線", "N02_004": "東京都", "N02_005": "荒川七丁目", "N02_005c": "003306", "N02_005g": "003306" }, "geometry": { "type": "LineString", "coordinates": [ [ 139.78392, 35.74205 ], [ 139.78417, 35.74195 ] ] } },
{ "type": "Feature", "properties": { "N02_001": "21", "N02_002": "3", "N02_003": "荒川線", "N02_004": "東京都", "N02_005": "熊野前", "N02_005c": "003266", "N02_005g": "003266" }, "geometry": { "type": "LineString", "coordinates": [ [ 139.76955, 35.74914 ], [ 139.76901, 35.74922 ] ] } },
{ "type": "Feature", "properties": { "N02_001": "21", "N02_002": "3", "N02_003": "荒川線", "N02_004": "東京都", "N02_005": "三ノ輪橋", "N02_005c": "003370", "N02_005g": "003370" }, "geometry": { "type": "LineString", "coordinates": [ [ 139.79174, 35.73209 ], [ 139.79127, 35.73235 ] ] } },
{ "type": "Feature", "properties": { "N02_001": "21", "N02_002": "3", "N02_003": "荒川線", "N02_004": "東京都", "N02_005": "荒川二丁目", "N02_005c": "003322", "N02_005g": "003322" }, "geometry": { "type": "LineString", "coordinates": [ [ 139.78469, 35.73837 ], [ 139.78469, 35.73883 ] ] } },
{ "type": "Feature", "properties": { "N02_001": "21", "N02_002": "3", "N02_003": "荒川線", "N02_004": "東京都", "N02_005": "町屋二丁目", "N02_005c": "003291", "N02_005g": "003291" }, "geometry": { "type": "LineString", "coordinates": [ [ 139.77665, 35.74375 ], [ 139.7762, 35.74408 ] ] } },
{ "type": "Feature", "properties": { "N02_001": "21", "N02_002": "3", "N02_003": "荒川線", "N02_004": "東京都", "N02_005": "宮ノ前", "N02_005c": "003259", "N02_005g": "003259" }, "geometry": { "type": "LineString", "coordinates": [ [ 139.76564, 35.74991 ], [ 139.76589, 35.74986 ] ] } },
{ "type": "Feature", "properties": { "N02_001": "21", "N02_002": "3", "N02_003": "荒川線", "N02_004": "東京都", "N02_005": "荒川区役所前", "N02_005c": "003350", "N02_005g": "003350" }, "geometry": { "type": "LineString", "coordinates": [ [ 139.78617, 35.73519 ], [ 139.78585, 35.73554 ] ] } },
{ "type": "Feature", "properties": { "N02_001": "21", "N02_002": "3", "N02_003": "荒川線", "N02_004": "東京都", "N02_005": "小台", "N02_005c": "003255", "N02_005g": "003255" }, "geometry": { "type": "LineString", "coordinates": [ [ 139.762, 35.75048 ], [ 139.76147, 35.7505 ] ] } },
{ "type": "Feature", "properties": { "N02_001": "21", "N02_002": "3", "N02_003": "荒川線", "N02_004": "東京都", "N02_005": "東尾久三丁目", "N02_005c": "003284", "N02_005g": "003284" }, "geometry": { "type": "LineString", "coordinates": [ [ 139.77405, 35.74549 ], [ 139.77375, 35.74569 ], [ 139.77365, 35.74576 ] ] } },
{ "type": "Feature", "properties": { "N02_001": "21", "N02_002": "3", "N02_003": "荒川線", "N02_004": "東京都", "N02_005": "町屋駅前", "N02_005c": "003299", "N02_005g": "003299" }, "geometry": { "type": "LineString", "coordinates": [ [ 139.78067, 35.7428 ], [ 139.78088, 35.74275 ] ] } },
{ "type": "Feature", "properties": { "N02_001": "21", "N02_002": "3", "N02_003": "荒川線", "N02_004": "東京都", "N02_005": "荒川一中前", "N02_005c": "003357", "N02_005g": "003357" }, "geometry": { "type": "LineString", "coordinates": [ [ 139.78868, 35.73376 ], [ 139.78893, 35.73362 ] ] } },
{ "type": "Feature", "properties": { "N02_001": "21", "N02_002": "3", "N02_003": "荒川線", "N02_004": "東京都", "N02_005": "栄町", "N02_005c": "003253", "N02_005g": "003253" }, "geometry": { "type": "LineString", "coordinates": [ [ 139.74193, 35.75082 ], [ 139.74251, 35.75086 ] ] } },
{ "type": "Feature", "properties": { "N02_001": "21", "N02_002": "3", "N02_003": "荒川線", "N02_004": "東京都", "N02_005": "早稲田", "N02_005c": "003514", "N02_005g": "003514" }, "geometry": { "type": "LineString", "coordinates": [ [ 139.71929, 35.71181 ], [ 139.71882, 35.71194 ] ] } },
{ "type": "Feature", "properties": { "N02_001": "21", "N02_002": "3", "N02_003": "荒川線", "N02_004": "東京都", "N02_005": "庚申塚", "N02_005c": "003319", "N02_005g": "003319" }, "geometry": { "type": "LineString", "coordinates": [ [ 139.72947, 35.73892 ], [ 139.72964, 35.73933 ] ] } },
{ "type": "Feature", "properties": { "N02_001": "21", "N02_002": "3", "N02_003": "荒川線", "N02_004": "東京都", "N02_005": "滝野川一丁目", "N02_005c": "003276", "N02_005g": "003276" }, "geometry": { "type": "LineString", "coordinates": [ [ 139.7355, 35.74742 ], [ 139.73533, 35.74718 ] ] } },
{ "type": "Feature", "properties": { "N02_001": "21", "N02_002": "3", "N02_003": "荒川線", "N02_004": "東京都", "N02_005": "面影橋", "N02_005c": "003509", "N02_005g": "003509" }, "geometry": { "type": "LineString", "coordinates": [ [ 139.71492, 35.71281 ], [ 139.71443, 35.7129 ] ] } },
{ "type": "Feature", "properties": { "N02_001": "21", "N02_002": "3", "N02_003": "荒川線", "N02_004": "東京都", "N02_005": "西ヶ原四丁目", "N02_005c": "003289", "N02_005g": "003289" }, "geometry": { "type": "LineString", "coordinates": [ [ 139.73254, 35.74404 ], [ 139.73283, 35.74443 ] ] } },
{ "type": "Feature", "properties": { "N02_001": "21", "N02_002": "3", "N02_003": "荒川線", "N02_004": "東京都", "N02_005": "学習院下", "N02_005c": "003490", "N02_005g": "003490" }, "geometry": { "type": "LineString", "coordinates": [ [ 139.71221, 35.71554 ], [ 139.71241, 35.71596 ] ] } },
{ "type": "Feature", "properties": { "N02_001": "21", "N02_002": "3", "N02_003": "荒川線", "N02_004": "東京都", "N02_005": "新庚申塚", "N02_005c": "003310", "N02_005g": "003310" }, "geometry": { "type": "LineString", "coordinates": [ [ 139.73024, 35.74092 ], [ 139.73046, 35.74129 ] ] } },
{ "type": "Feature", "properties": { "N02_001": "21", "N02_002": "3", "N02_003": "荒川線", "N02_004": "東京都", "N02_005": "東池袋四丁目", "N02_005c": "003436", "N02_005g": "003436" }, "geometry": { "type": "LineString", "coordinates": [ [ 139.7205, 35.7254 ], [ 139.72097, 35.7256 ] ] } },
{ "type": "Feature", "properties": { "N02_001": "21", "N02_002": "3", "N02_003": "荒川線", "N02_004": "東京都", "N02_005": "向原", "N02_005c": "003407", "N02_005g": "003407" }, "geometry": { "type": "LineString", "coordinates": [ [ 139.72463, 35.7286 ], [ 139.72498, 35.72893 ] ] } },
{ "type": "Feature", "properties": { "N02_001": "21", "N02_002": "3", "N02_003": "荒川線", "N02_004": "東京都", "N02_005": "飛鳥山", "N02_005c": "003256", "N02_005g": "003256" }, "geometry": { "type": "LineString", "coordinates": [ [ 139.73721, 35.74989 ], [ 139.73743, 35.75024 ] ] } },
{ "type": "Feature", "properties": { "N02_001": "21", "N02_002": "3", "N02_003": "荒川線", "N02_004": "東京都", "N02_005": "大塚駅前", "N02_005c": "003378", "N02_005g": "003378" }, "geometry": { "type": "LineString", "coordinates": [ [ 139.7294, 35.73145 ], [ 139.72951, 35.73179 ] ] } },
{ "type": "Feature", "properties": { "N02_001": "21", "N02_002": "3", "N02_003": "荒川線", "N02_004": "東京都", "N02_005": "巣鴨新田", "N02_005c": "003351", "N02_005g": "003351" }, "geometry": { "type": "LineString", "coordinates": [ [ 139.72804, 35.73496 ], [ 139.72778, 35.73536 ] ] } },
{ "type": "Feature", "properties": { "N02_001": "21", "N02_002": "3", "N02_003": "荒川線", "N02_004": "東京都", "N02_005": "都電雑司ヶ谷", "N02_005c": "003443", "N02_005g": "003443" }, "geometry": { "type": "LineString", "coordinates": [ [ 139.7181, 35.72433 ], [ 139.71779, 35.72405 ], [ 139.71756, 35.72382 ] ] } },
{ "type": "Feature", "properties": { "N02_001": "21", "N02_002": "3", "N02_003": "荒川線", "N02_004": "東京都", "N02_005": "鬼子母神前", "N02_005c": "003468", "N02_005g": "003468" }, "geometry": { "type": "LineString", "coordinates": [ [ 139.71502, 35.7204 ], [ 139.71529, 35.72076 ] ] } },
{ "type": "Feature", "properties": { "N02_001": "24", "N02_002": "3", "N02_003": "日暮里・舎人ライナー", "N02_004": "東京都", "N02_005": "見沼代親水公園", "N02_005c": "003060", "N02_005g": "003060" }, "geometry": { "type": "LineString", "coordinates": [ [ 139.77068, 35.81442 ], [ 139.77072, 35.81479 ] ] } },
{ "type": "Feature", "properties": { "N02_001": "24", "N02_002": "3", "N02_003": "日暮里・舎人ライナー", "N02_004": "東京都", "N02_005": "舎人", "N02_005c": "003078", "N02_005g": "003078" }, "geometry": { "type": "LineString", "coordinates": [ [ 139.77014, 35.8055 ], [ 139.77013, 35.80594 ] ] } },
{ "type": "Feature", "properties": { "N02_001": "24", "N02_002": "3", "N02_003": "日暮里・舎人ライナー", "N02_004": "東京都", "N02_005": "舎人公園", "N02_005c": "003098", "N02_005g": "003098" }, "geometry": { "type": "LineString", "coordinates": [ [ 139.77012, 35.79621 ], [ 139.77012, 35.79712 ] ] } },
{ "type": "Feature", "properties": { "N02_001": "24", "N02_002": "3", "N02_003": "日暮里・舎人ライナー", "N02_004": "東京都", "N02_005": "西新井大師西", "N02_005c": "003144", "N02_005g": "003144" }, "geometry": { "type": "LineString", "coordinates": [ [ 139.77014, 35.78083 ], [ 139.77014, 35.78149 ] ] } },
{ "type": "Feature", "properties": { "N02_001": "24", "N02_002": "3", "N02_003": "日暮里・舎人ライナー", "N02_004": "東京都", "N02_005": "江北", "N02_005c": "003171", "N02_005g": "003171" }, "geometry": { "type": "LineString", "coordinates": [ [ 139.77037, 35.77338 ], [ 139.77032, 35.77419 ] ] } },
{ "type": "Feature", "properties": { "N02_001": "24", "N02_002": "3", "N02_003": "日暮里・舎人ライナー", "N02_004": "東京都", "N02_005": "高野", "N02_005c": "003196", "N02_005g": "003196" }, "geometry": { "type": "LineString", "coordinates": [ [ 139.77075, 35.76784 ], [ 139.77069, 35.76867 ] ] } },
{ "type": "Feature", "properties": { "N02_001": "24", "N02_002": "3", "N02_003": "日暮里・舎人ライナー", "N02_004": "東京都", "N02_005": "足立小台", "N02_005c": "003235", "N02_005g": "003235" }, "geometry": { "type": "LineString", "coordinates": [ [ 139.77017, 35.75438 ], [ 139.77024, 35.75489 ] ] } },
{ "type": "Feature", "properties": { "N02_001": "24", "N02_002": "3", "N02_003": "日暮里・舎人ライナー", "N02_004": "東京都", "N02_005": "谷在家", "N02_005c": "003120", "N02_005g": "003120" }, "geometry": { "type": "LineString", "coordinates": [ [ 139.7701, 35.78843 ], [ 139.7701, 35.78893 ] ] } },
{ "type": "Feature", "properties": { "N02_001": "24", "N02_002": "3", "N02_003": "日暮里・舎人ライナー", "N02_004": "東京都", "N02_005": "扇大橋", "N02_005c": "003209", "N02_005g": "003209" }, "geometry": { "type": "LineString", "coordinates": [ [ 139.77086, 35.76375 ], [ 139.77084, 35.76452 ] ] } },
{ "type": "Feature", "properties": { "N02_001": "24", "N02_002": "3", "N02_003": "日暮里・舎人ライナー", "N02_004": "東京都", "N02_005": "西日暮里", "N02_005c": "003358", "N02_005g": "003368" }, "geometry": { "type": "LineString", "coordinates": [ [ 139.76809, 35.73327 ], [ 139.76817, 35.7341 ] ] } },
{ "type": "Feature", "properties": { "N02_001": "24", "N02_002": "3", "N02_003": "日暮里・舎人ライナー", "N02_004": "東京都", "N02_005": "赤土小学校前", "N02_005c": "003298", "N02_005g": "003298" }, "geometry": { "type": "LineString", "coordinates": [ [ 139.7691, 35.74275 ], [ 139.76916, 35.74337 ] ] } },
{ "type": "Feature", "properties": { "N02_001": "24", "N02_002": "3", "N02_003": "日暮里・舎人ライナー", "N02_004": "東京都", "N02_005": "熊野前", "N02_005c": "003270", "N02_005g": "003266" }, "geometry": { "type": "LineString", "coordinates": [ [ 139.76988, 35.74785 ], [ 139.76997, 35.74864 ] ] } },
{ "type": "Feature", "properties": { "N02_001": "24", "N02_002": "3", "N02_003": "日暮里・舎人ライナー", "N02_004": "東京都", "N02_005": "日暮里", "N02_005c": "003406", "N02_005g": "003417" }, "geometry": { "type": "LineString", "coordinates": [ [ 139.77086, 35.72854 ], [ 139.77146, 35.72905 ] ] } }
]
}
